STARLINK-6290           
1 57328U 23099A   26068.56307001 -.00000462  00000+0 -19159-4 0  9994
2 57328  43.0031 249.9992 0001552 274.8014  85.2651 15.02535354147003
LEMUR-2-ARIANNA         
1 62699U 25009CU  26068.74082662  .00009084  00000+0  71790-3 0  9992
2 62699  97.6996 151.0445 0004640 147.3928 212.7583 15.00881954 62634
